1 25417U 98046E   17127.90951148 +.00000057 +00000-0 +72280-4 0  9996,2 25417 044.9985 090.2782 0004657 284.1838 075.8491 14.32530696979068
1 25417U 98046E   17128.39768589 +.00000054 +00000-0 +71214-4 0  9998,2 25417 044.9985 087.9841 0004628 286.2330 073.8006 14.32530947979132
1 25417U 98046E   17129.37403449 +.00000039 +00000-0 +65609-4 0  9992,2 25417 044.9987 083.3958 0004591 290.2862 069.7490 14.32531360979273
1 25417U 98046E   17130.21090465 +.00000036 +00000-0 +64478-4 0  9997,2 25417 044.9989 079.4629 0004551 293.8151 066.2218 14.32531693979574
1 25417U 98046E   17130.35038298 +.00000037 +00000-0 +64722-4 0  9991,2 25417 044.9989 078.8075 0004542 294.4254 065.6118 14.32531758979410
1 25417U 98046E   17131.18725295 +.00000051 +00000-0 +69933-4 0  9998,2 25417 044.9990 074.8746 0004501 297.9696 062.0695 14.32532141979537
1 25417U 98046E   17131.32673125 +.00000054 +00000-0 +70898-4 0  9993,2 25417 044.9990 074.2191 0004492 298.5910 061.4484 14.32532209979736
1 25417U 98046E   17131.81490529 +.00000060 +00000-0 +73292-4 0  9990,2 25417 044.9991 071.9249 0004471 300.6373 059.4032 14.32532397979622
1 25417U 98046E   17132.30307928 +.00000070 +00000-0 +77055-4 0  9997,2 25417 044.9991 069.6308 0004426 302.8135 057.2284 14.32532630979694
1 25417U 98046E   17132.86099224 +.00000077 +00000-0 +79367-4 0  9990,2 25417 044.9992 067.0088 0004397 305.0466 054.9967 14.32532862979779
1 25417U 98046E   17133.20968790 +.00000078 +00000-0 +79881-4 0  9994,2 25417 044.9992 065.3702 0004367 306.6353 053.4091 14.32532985979826
1 25417U 98046E   17133.90707888 +.00000081 +00000-0 +80853-4 0  9995,2 25417 044.9993 062.0928 0004326 309.4756 050.5707 14.32533298979925
1 25417U 98046E   17134.18603534 +.00000082 +00000-0 +81454-4 0  9998,2 25417 044.9993 060.7819 0004303 310.7685 049.2787 14.32533409979961
1 25417U 98046E   17134.88342622 +.00000073 +00000-0 +77866-4 0  9995,2 25417 044.9994 057.5045 0004254 313.6986 046.3507 14.32533670980069
1 25417U 98046E   17135.58081699 +.00000069 +00000-0 +76600-4 0  9997,2 25417 044.9996 054.2272 0004224 316.7315 043.3199 14.32533988980161
1 25417U 98046E   17135.85977330 +.00000065 +00000-0 +75143-4 0  9990,2 25417 044.9996 052.9162 0004194 317.9080 042.1443 14.32534092980203
1 25417U 98046E   17136.20846872 +.00000071 +00000-0 +77106-4 0  9994,2 25417 044.9996 051.2777 0004157 319.6618 040.3919 14.32534283980437
1 25417U 98046E   17136.83612018 +.00000060 +00000-0 +73317-4 0  9994,2 25417 044.9997 048.3280 0004102 322.3115 037.7443 14.32534548980343
1 25417U 98046E   17137.25455463 +.00000048 +00000-0 +68942-4 0  9994,2 25417 044.9997 046.3618 0004068 324.2750 035.7824 14.32534647980580
1 25417U 98046E   17138.16116226 +.00000038 +00000-0 +65215-4 0  9995,2 25417 044.9998 042.1013 0003982 328.4608 031.5999 14.32534972980539
1 25417U 98046E   17138.85855249 +.00000044 +00000-0 +67343-4 0  9997,2 25417 044.9998 038.8239 0003911 331.5115 028.5517 14.32535290980638
1 25417U 98046E   17139.13750861 +.00000047 +00000-0 +68612-4 0  9996,2 25417 044.9998 037.5131 0003889 332.8850 027.1792 14.32535405980671
1 25417U 98046E   17139.90463766 +.00000067 +00000-0 +75765-4 0  9995,2 25417 044.9999 033.9080 0003815 336.4580 023.6091 14.32535800980788
1 25417U 98046E   17140.18359357 +.00000092 +00000-0 +84849-4 0  9998,2 25417 044.9999 032.5971 0003781 337.9383 022.1299 14.32536061980820
1 25417U 98046E   17140.88098334 +.00000104 +00000-0 +89240-4 0  9994,2 25417 044.9999 029.3197 0003716 341.2183 018.8526 14.32536395980924
1 25417U 98046E   17141.15993921 +.00000117 +00000-0 +94191-4 0  9996,2 25417 044.9998 028.0088 0003685 342.7127 017.3593 14.32536581980966
1 25417U 98046E   17141.85732867 +.00000119 +00000-0 +94826-4 0  9990,2 25417 044.9998 024.7314 0003615 346.0333 014.0413 14.32536895981245
1 25417U 98046E   17142.90341257 +.00000119 +00000-0 +94831-4 0  9992,2 25417 044.9998 019.8153 0003517 351.3035 008.7749 14.32537402981214
1 25417U 98046E   17143.11262930 +.00000118 +00000-0 +94290-4 0  9994,2 25417 044.9998 018.8322 0003498 352.4631 007.6162 14.32537510981423
1 25417U 98046E   17144.15871261 +.00000106 +00000-0 +90247-4 0  9997,2 25417 044.9998 013.9161 0003403 357.7785 002.3046 14.32538063981577
1 25417U 98046E   17144.78636239 +.00000091 +00000-0 +84486-4 0  9991,2 25417 044.9998 010.9664 0003336 001.0082 359.0770 14.32538350981481
1 25417U 98046E   17145.06531298 +.00000090 +00000-0 +84322-4 0  9990,2 25417 044.9999 009.6554 0003331 000.9990 359.0862 14.32555381981526
1 25417U 98046E   17145.90216936 +.00000083 +00000-0 +81696-4 0  9995,2 25417 044.9998 005.7224 0003236 005.4691 354.6190 14.32555560981645
1 25417U 98046E   17146.04164541 -.00000126 +00000-0 +54130-5 0  9998,2 25417 044.9998 005.0669 0003216 006.3685 353.7201 14.32555481981669
1 25417U 98046E   17146.87850160 -.00000126 +00000-0 +52753-5 0  9997,2 25417 044.9999 001.1341 0003124 010.9573 349.1341 14.32555706981786
1 25417U 98046E   17147.01797762 -.00000123 +00000-0 +62146-5 0  9996,2 25417 044.9998 000.4786 0003117 011.8196 348.2723 14.32555770981980
1 25417U 98046E   17147.85483343 -.00000119 +00000-0 +80224-5 0  9997,2 25417 044.9999 356.5458 0003039 016.4081 343.6863 14.32556244981924
1 25417U 98046E   17148.90090246 -.00000106 +00000-0 +12559-4 0  9991,2 25417 044.9997 351.6295 0002945 022.3488 337.7486 14.32557355982075
1 25417U 98046E   17149.52854371 -.00000100 +00000-0 +14852-4 0  9999,2 25417 044.9997 348.6796 0002865 026.1902 333.9088 14.32557448982160
1 25417U 98046E   17149.87723282 -.00000036 +00000-0 +38250-4 0  9999,2 25417 044.9997 347.0411 0002839 028.4813 331.6187 14.32558312982216
1 25417U 98046E   17150.50487374 +.00000041 +00000-0 +66221-4 0  9994,2 25417 044.9996 344.0912 0002815 031.7858 328.3157 14.32558381982304
1 25417U 98046E   17150.71408734 +.00000021 +00000-0 +58915-4 0  9999,2 25417 044.9996 343.1079 0002793 033.1939 326.9082 14.32558433982331
1 25417U 98046E   17151.76015478 +.00000012 +00000-0 +55610-4 0  9993,2 25417 044.9995 338.1916 0002717 039.3760 320.7284 14.32558932982486
1 25417U 98046E   17152.94569725 -.00000005 +00000-0 +49442-4 0  9992,2 25417 044.9994 332.6199 0002616 047.4882 312.6185 14.32559624982658
1 25417U 98046E   17153.57333731 -.00000016 +00000-0 +45607-4 0  9999,2 25417 044.9994 329.6701 0002560 051.8007 308.3070 14.32559833982746
1 25417U 98046E   17153.85228825 +.00000063 +00000-0 +74304-4 0  9994,2 25417 044.9994 328.3592 0002544 053.7381 306.3700 14.32560286982784
1 25417U 98046E   17154.47992806 +.00000048 +00000-0 +68794-4 0  9999,2 25417 044.9994 325.4094 0002501 057.9227 302.1861 14.32560529982879
1 25417U 98046E   17154.89835462 +.00000041 +00000-0 +66450-4 0  9999,2 25417 044.9994 323.4429 0002487 060.8258 299.2836 14.32560697982930
1 25417U 98046E   17155.52599426 +.00000032 +00000-0 +63024-4 0  9991,2 25417 044.9994 320.4931 0002452 065.0910 295.0191 14.32560909983024
1 25417U 98046E   17155.87468294 +.00000041 +00000-0 +66173-4 0  9995,2 25417 044.9995 318.8545 0002445 067.4902 292.6203 14.32561092983072
1 25417U 98046E   17156.57206007 +.00000039 +00000-0 +65704-4 0  9991,2 25417 044.9995 315.5770 0002405 072.5592 287.5517 14.32561342983174
1 25417U 98046E   17156.85101091 +.00000047 +00000-0 +68499-4 0  9992,2 25417 044.9994 314.2661 0002402 074.4574 285.6537 14.32561476983210
1 25417U 98046E   17157.54838778 +.00000051 +00000-0 +69987-4 0  9996,2 25417 044.9994 310.9885 0002371 079.6313 280.4800 14.32561740983315
1 25417U 98046E   17157.89707621 +.00000057 +00000-0 +72216-4 0  9991,2 25417 044.9994 309.3499 0002366 081.9979 278.1135 14.32561880983361
1 25417U 98046E   17158.80366576 +.00000069 +00000-0 +76581-4 0  9995,2 25417 044.9993 305.0892 0002349 088.7958 271.3157 14.32562265983494
1 25417U 98046E   17159.57077971 +.00000063 +00000-0 +74332-4 0  9994,2 25417 044.9993 301.4840 0002333 094.6123 265.4989 14.32562553983600
1 25417U 98046E   17159.77999262 +.00000063 +00000-0 +74258-4 0  9999,2 25417 044.9992 300.5008 0002334 096.1258 263.9854 14.32562628983812
1 25417U 98046E   17160.82605677 +.00000053 +00000-0 +70610-4 0  9998,2 25417 044.9991 295.5846 0002344 103.6383 256.4725 14.32563045983962
1 25417U 98046E   17161.38395751 +.00000045 +00000-0 +67733-4 0  9992,2 25417 044.9991 292.9625 0002343 107.7492 252.3610 14.32563248983865
1 25417U 98046E   17161.80238311 +.00000038 +00000-0 +65332-4 0  9992,2 25417 044.9991 290.9962 0002356 110.7247 249.3852 14.32563388983929
1 25417U 98046E   17162.56949648 +.00000029 +00000-0 +61917-4 0  9993,2 25417 044.9991 287.3909 0002374 116.2404 243.8686 14.32563650984035
1 25417U 98046E   17162.84844674 +.00000024 +00000-0 +60188-4 0  9991,2 25417 044.9990 286.0799 0002384 118.3496 241.7591 14.32563736984073
1 25417U 98046E   17163.54582237 +.00000020 +00000-0 +58725-4 0  9993,2 25417 044.9990 282.8023 0002405 123.4239 236.6837 14.32563955984173
1 25417U 98046E   17163.82477260 +.00000014 +00000-0 +56353-4 0  9991,2 25417 044.9990 281.4914 0002416 125.4100 234.6971 14.32564011984393
1 25417U 98046E   17164.45241049 +.00000012 +00000-0 +55542-4 0  9992,2 25417 044.9990 278.5416 0002441 129.7851 230.3210 14.32564193984306
1 25417U 98046E   17164.73136069 +.00000014 +00000-0 +56375-4 0  9995,2 25417 044.9990 277.2307 0002456 131.6332 228.4725 14.32564264984345
1 25417U 98046E   17165.56821104 +.00000019 +00000-0 +58219-4 0  9992,2 25417 044.9989 273.2977 0002495 137.4414 222.6626 14.32564489984468
1 25417U 98046E   17165.77742363 +.00000017 +00000-0 +57463-4 0  9992,2 25417 044.9989 272.3145 0002502 138.8430 221.2605 14.32564517984494
1 25417U 98046E   17166.12612155  .00000045  00000-0  16230-4 0  9995,2 25417  44.9971 270.6712 0002467 146.3535 213.8012 14.32562500984721
1 25417U 98046E   17166.68401132 +.00000007 +00000-0 +53815-4 0  9995,2 25417 044.9988 268.0538 0002554 144.8250 215.2765 14.32564654984622
1 25417U 98046E   17167.59059894 -.00000009 +00000-0 +48020-4 0  9995,2 25417 044.9987 263.7932 0002613 150.5156 209.5838 14.32564742984755
